<?xml version="1.0" encoding="UTF-8"?>
<ndm xmlns:xsi="http://www.w3.org/2001/XMLSchema-instance" xsi:noNamespaceSchemaLocation="https://sanaregistry.org/r/ndmxml_unqualified/ndmxml-2.0.0-master-2.0.xsd">
<omm id="CCSDS_OMM_VERS" version="2.0">
<header><CREATION_DATE/><ORIGINATOR/></header><body><segment><metadata><OBJECT_NAME>ORBCOMM FM24</OBJECT_NAME><OBJECT_ID>1998-053D</OBJECT_ID><CENTER_NAME>EARTH</CENTER_NAME><REF_FRAME>TEME</REF_FRAME><TIME_SYSTEM>UTC</TIME_SYSTEM><MEAN_ELEMENT_THEORY>SGP4</MEAN_ELEMENT_THEORY></metadata><data><meanElements><EPOCH>2024-11-15T09:50:19.870944</EPOCH><MEAN_MOTION>14.36976661</MEAN_MOTION><ECCENTRICITY>.0001043</ECCENTRICITY><INCLINATION>45.0069</INCLINATION><RA_OF_ASC_NODE>201.9149</RA_OF_ASC_NODE><ARG_OF_PERICENTER>236.2313</ARG_OF_PERICENTER><MEAN_ANOMALY>123.8435</MEAN_ANOMALY></meanElements><tleParameters><EPHEMERIS_TYPE>0</EPHEMERIS_TYPE><CLASSIFICATION_TYPE>U</CLASSIFICATION_TYPE><NORAD_CAT_ID>25478</NORAD_CAT_ID><ELEMENT_SET_NO>999</ELEMENT_SET_NO><REV_AT_EPOCH>36668</REV_AT_EPOCH><BSTAR>.8036E-3</BSTAR><MEAN_MOTION_DOT>.2262E-4</MEAN_MOTION_DOT><MEAN_MOTION_DDOT>0</MEAN_MOTION_DDOT></tleParameters></data></segment></body></omm>
<omm id="CCSDS_OMM_VERS" version="2.0">
<header><CREATION_DATE/><ORIGINATOR/></header><body><segment><metadata><OBJECT_NAME>ORBCOMM FM25</OBJECT_NAME><OBJECT_ID>1998-053E</OBJECT_ID><CENTER_NAME>EARTH</CENTER_NAME><REF_FRAME>TEME</REF_FRAME><TIME_SYSTEM>UTC</TIME_SYSTEM><MEAN_ELEMENT_THEORY>SGP4</MEAN_ELEMENT_THEORY></metadata><data><meanElements><EPOCH>2024-11-15T09:04:53.935392</EPOCH><MEAN_MOTION>14.36970122</MEAN_MOTION><ECCENTRICITY>.000343</ECCENTRICITY><INCLINATION>45.0059</INCLINATION><RA_OF_ASC_NODE>200.3183</RA_OF_ASC_NODE><ARG_OF_PERICENTER>254.8487</ARG_OF_PERICENTER><MEAN_ANOMALY>105.1982</MEAN_ANOMALY></meanElements><tleParameters><EPHEMERIS_TYPE>0</EPHEMERIS_TYPE><CLASSIFICATION_TYPE>U</CLASSIFICATION_TYPE><NORAD_CAT_ID>25479</NORAD_CAT_ID><ELEMENT_SET_NO>999</ELEMENT_SET_NO><REV_AT_EPOCH>36697</REV_AT_EPOCH><BSTAR>.86147E-3</BSTAR><MEAN_MOTION_DOT>.2435E-4</MEAN_MOTION_DOT><MEAN_MOTION_DDOT>0</MEAN_MOTION_DDOT></tleParameters></data></segment></body></omm>
<omm id="CCSDS_OMM_VERS" version="2.0">
<header><CREATION_DATE/><ORIGINATOR/></header><body><segment><metadata><OBJECT_NAME>ORBCOMM FM26</OBJECT_NAME><OBJECT_ID>1998-053F</OBJECT_ID><CENTER_NAME>EARTH</CENTER_NAME><REF_FRAME>TEME</REF_FRAME><TIME_SYSTEM>UTC</TIME_SYSTEM><MEAN_ELEMENT_THEORY>SGP4</MEAN_ELEMENT_THEORY></metadata><data><meanElements><EPOCH>2024-11-15T09:35:41.249472</EPOCH><MEAN_MOTION>14.36197401</MEAN_MOTION><ECCENTRICITY>.0005499</ECCENTRICITY><INCLINATION>45.0054</INCLINATION><RA_OF_ASC_NODE>195.2572</RA_OF_ASC_NODE><ARG_OF_PERICENTER>277.1404</ARG_OF_PERICENTER><MEAN_ANOMALY>82.8819</MEAN_ANOMALY></meanElements><tleParameters><EPHEMERIS_TYPE>0</EPHEMERIS_TYPE><CLASSIFICATION_TYPE>U</CLASSIFICATION_TYPE><NORAD_CAT_ID>25480</NORAD_CAT_ID><ELEMENT_SET_NO>999</ELEMENT_SET_NO><REV_AT_EPOCH>36690</REV_AT_EPOCH><BSTAR>.7183E-3</BSTAR><MEAN_MOTION_DOT>.1974E-4</MEAN_MOTION_DOT><MEAN_MOTION_DDOT>0</MEAN_MOTION_DDOT></tleParameters></data></segment></body></omm>
<omm id="CCSDS_OMM_VERS" version="2.0">
<header><CREATION_DATE/><ORIGINATOR/></header><body><segment><metadata><OBJECT_NAME>ORBCOMM FM27</OBJECT_NAME><OBJECT_ID>1998-053G</OBJECT_ID><CENTER_NAME>EARTH</CENTER_NAME><REF_FRAME>TEME</REF_FRAME><TIME_SYSTEM>UTC</TIME_SYSTEM><MEAN_ELEMENT_THEORY>SGP4</MEAN_ELEMENT_THEORY></metadata><data><meanElements><EPOCH>2024-11-15T08:49:51.235104</EPOCH><MEAN_MOTION>14.36964734</MEAN_MOTION><ECCENTRICITY>.0000507</ECCENTRICITY><INCLINATION>45.0043</INCLINATION><RA_OF_ASC_NODE>200.6215</RA_OF_ASC_NODE><ARG_OF_PERICENTER>48.4109</ARG_OF_PERICENTER><MEAN_ANOMALY>311.6782</MEAN_ANOMALY></meanElements><tleParameters><EPHEMERIS_TYPE>0</EPHEMERIS_TYPE><CLASSIFICATION_TYPE>U</CLASSIFICATION_TYPE><NORAD_CAT_ID>25481</NORAD_CAT_ID><ELEMENT_SET_NO>999</ELEMENT_SET_NO><REV_AT_EPOCH>36690</REV_AT_EPOCH><BSTAR>.90382E-3</BSTAR><MEAN_MOTION_DOT>.2561E-4</MEAN_MOTION_DOT><MEAN_MOTION_DDOT>0</MEAN_MOTION_DDOT></tleParameters></data></segment></body></omm>
<omm id="CCSDS_OMM_VERS" version="2.0">
<header><CREATION_DATE/><ORIGINATOR/></header><body><segment><metadata><OBJECT_NAME>ORBCOMM FM28</OBJECT_NAME><OBJECT_ID>1998-053H</OBJECT_ID><CENTER_NAME>EARTH</CENTER_NAME><REF_FRAME>TEME</REF_FRAME><TIME_SYSTEM>UTC</TIME_SYSTEM><MEAN_ELEMENT_THEORY>SGP4</MEAN_ELEMENT_THEORY></metadata><data><meanElements><EPOCH>2024-11-15T13:56:59.828064</EPOCH><MEAN_MOTION>14.37268529</MEAN_MOTION><ECCENTRICITY>.0003418</ECCENTRICITY><INCLINATION>45.0035</INCLINATION><RA_OF_ASC_NODE>137.5126</RA_OF_ASC_NODE><ARG_OF_PERICENTER>294.9914</ARG_OF_PERICENTER><MEAN_ANOMALY>65.0579</MEAN_ANOMALY></meanElements><tleParameters><EPHEMERIS_TYPE>0</EPHEMERIS_TYPE><CLASSIFICATION_TYPE>U</CLASSIFICATION_TYPE><NORAD_CAT_ID>25482</NORAD_CAT_ID><ELEMENT_SET_NO>999</ELEMENT_SET_NO><REV_AT_EPOCH>36761</REV_AT_EPOCH><BSTAR>.82057E-3</BSTAR><MEAN_MOTION_DOT>.2327E-4</MEAN_MOTION_DOT><MEAN_MOTION_DDOT>0</MEAN_MOTION_DDOT></tleParameters></data></segment></body></omm>
<omm id="CCSDS_OMM_VERS" version="2.0">
<header><CREATION_DATE/><ORIGINATOR/></header><body><segment><metadata><OBJECT_NAME>ORBCOMM FM30</OBJECT_NAME><OBJECT_ID>1999-065A</OBJECT_ID><CENTER_NAME>EARTH</CENTER_NAME><REF_FRAME>TEME</REF_FRAME><TIME_SYSTEM>UTC</TIME_SYSTEM><MEAN_ELEMENT_THEORY>SGP4</MEAN_ELEMENT_THEORY></metadata><data><meanElements><EPOCH>2024-11-15T11:34:58.401696</EPOCH><MEAN_MOTION>14.36349028</MEAN_MOTION><ECCENTRICITY>.000549</ECCENTRICITY><INCLINATION>45.0327</INCLINATION><RA_OF_ASC_NODE>20.5761</RA_OF_ASC_NODE><ARG_OF_PERICENTER>357.3179</ARG_OF_PERICENTER><MEAN_ANOMALY>2.7639</MEAN_ANOMALY></meanElements><tleParameters><EPHEMERIS_TYPE>0</EPHEMERIS_TYPE><CLASSIFICATION_TYPE>U</CLASSIFICATION_TYPE><NORAD_CAT_ID>25980</NORAD_CAT_ID><ELEMENT_SET_NO>999</ELEMENT_SET_NO><REV_AT_EPOCH>30371</REV_AT_EPOCH><BSTAR>.8356E-3</BSTAR><MEAN_MOTION_DOT>.2326E-4</MEAN_MOTION_DOT><MEAN_MOTION_DDOT>0</MEAN_MOTION_DDOT></tleParameters></data></segment></body></omm>
<omm id="CCSDS_OMM_VERS" version="2.0">
<header><CREATION_DATE/><ORIGINATOR/></header><body><segment><metadata><OBJECT_NAME>ORBCOMM FM31</OBJECT_NAME><OBJECT_ID>1999-065B</OBJECT_ID><CENTER_NAME>EARTH</CENTER_NAME><REF_FRAME>TEME</REF_FRAME><TIME_SYSTEM>UTC</TIME_SYSTEM><MEAN_ELEMENT_THEORY>SGP4</MEAN_ELEMENT_THEORY></metadata><data><meanElements><EPOCH>2024-11-15T14:08:16.900800</EPOCH><MEAN_MOTION>14.36328035</MEAN_MOTION><ECCENTRICITY>.0002327</ECCENTRICITY><INCLINATION>45.0240</INCLINATION><RA_OF_ASC_NODE>13.6498</RA_OF_ASC_NODE><ARG_OF_PERICENTER>7.8512</ARG_OF_PERICENTER><MEAN_ANOMALY>352.2372</MEAN_ANOMALY></meanElements><tleParameters><EPHEMERIS_TYPE>0</EPHEMERIS_TYPE><CLASSIFICATION_TYPE>U</CLASSIFICATION_TYPE><NORAD_CAT_ID>25981</NORAD_CAT_ID><ELEMENT_SET_NO>999</ELEMENT_SET_NO><REV_AT_EPOCH>30328</REV_AT_EPOCH><BSTAR>.82938E-3</BSTAR><MEAN_MOTION_DOT>.2307E-4</MEAN_MOTION_DOT><MEAN_MOTION_DDOT>0</MEAN_MOTION_DDOT></tleParameters></data></segment></body></omm>
<omm id="CCSDS_OMM_VERS" version="2.0">
<header><CREATION_DATE/><ORIGINATOR/></header><body><segment><metadata><OBJECT_NAME>ORBCOMM FM32</OBJECT_NAME><OBJECT_ID>1999-065C</OBJECT_ID><CENTER_NAME>EARTH</CENTER_NAME><REF_FRAME>TEME</REF_FRAME><TIME_SYSTEM>UTC</TIME_SYSTEM><MEAN_ELEMENT_THEORY>SGP4</MEAN_ELEMENT_THEORY></metadata><data><meanElements><EPOCH>2024-11-15T11:48:50.469984</EPOCH><MEAN_MOTION>14.35347233</MEAN_MOTION><ECCENTRICITY>.0003943</ECCENTRICITY><INCLINATION>45.0167</INCLINATION><RA_OF_ASC_NODE>29.2349</RA_OF_ASC_NODE><ARG_OF_PERICENTER>26.1012</ARG_OF_PERICENTER><MEAN_ANOMALY>334.0034</MEAN_ANOMALY></meanElements><tleParameters><EPHEMERIS_TYPE>0</EPHEMERIS_TYPE><CLASSIFICATION_TYPE>U</CLASSIFICATION_TYPE><NORAD_CAT_ID>25982</NORAD_CAT_ID><ELEMENT_SET_NO>999</ELEMENT_SET_NO><REV_AT_EPOCH>30388</REV_AT_EPOCH><BSTAR>.82108E-3</BSTAR><MEAN_MOTION_DOT>.2235E-4</MEAN_MOTION_DOT><MEAN_MOTION_DDOT>0</MEAN_MOTION_DDOT></tleParameters></data></segment></body></omm>

</ndm>
