ORBCOMM FM24            
1 25478U 98053D   24320.40995221  .00002262  00000+0  80360-3 0  9995
2 25478  45.0069 201.9149 0001043 236.2313 123.8435 14.36976661366680
ORBCOMM FM25            
1 25479U 98053E   24320.37840203  .00002435  00000+0  86147-3 0  9992
2 25479  45.0059 200.3183 0003430 254.8487 105.1982 14.36970122366979
ORBCOMM FM26            
1 25480U 98053F   24320.39978298  .00001974  00000+0  71830-3 0  9992
2 25480  45.0054 195.2572 0005499 277.1404  82.8819 14.36197401366908
ORBCOMM FM27            
1 25481U 98053G   24320.36795411  .00002561  00000+0  90382-3 0  9990
2 25481  45.0043 200.6215 0000507  48.4109 311.6782 14.36964734366901
ORBCOMM FM28            
1 25482U 98053H   24320.58124801  .00002327  00000+0  82057-3 0  9994
2 25482  45.0035 137.5126 0003418 294.9914  65.0579 14.37268529367611
ORBCOMM FM30            
1 25980U 99065A   24320.48262039  .00002326  00000+0  83560-3 0  9995
2 25980  45.0327  20.5761 0005490 357.3179   2.7639 14.36349028303712
ORBCOMM FM31            
1 25981U 99065B   24320.58908450  .00002307  00000+0  82938-3 0  9998
2 25981  45.0240  13.6498 0002327   7.8512 352.2372 14.36328035303285
ORBCOMM FM32            
1 25982U 99065C   24320.49225081  .00002235  00000+0  82108-3 0  9990
2 25982  45.0167  29.2349 0003943  26.1012 334.0034 14.35347233303885
